{
"type": "FeatureCollection",
"name": "sangrur_blocks",
"crs": { "type": "name", "properties": { "name": "urn:ogc:def:crs:OGC:1.3:CRS84" } },
"features": [
{ "type": "Feature", "properties": { "block": "Dhuri" }, "geometry": { "type": "Polygon", "coordinates": [ [ [ 75.55, 30.25 ], [ 75.85, 30.25 ], [ 75.85, 30.65 ], [ 75.55, 30.65 ], [ 75.55, 30.25 ] ] ] } },
{ "type": "Feature", "properties": { "block": "Lehra" }, "geometry": { "type": "Polygon", "coordinates": [ [ [ 75.85, 30.25 ], [ 76.15, 30.25 ], [ 76.15, 30.65 ], [ 75.85, 30.65 ], [ 75.85, 30.25 ] ] ] } },
{ "type": "Feature", "properties": { "block": "Malerkotla" }, "geometry": { "type": "Polygon", "coordinates": [ [ [ 76.15, 30.25 ], [ 76.45, 30.25 ], [ 76.45, 30.65 ], [ 76.15, 30.65 ], [ 76.15, 30.25 ] ] ] } },
{ "type": "Feature", "properties": { "block": "Moonak" }, "geometry": { "type": "Polygon", "coordinates": [ [ [ 75.55, 29.85 ], [ 75.85, 29.85 ], [ 75.85, 30.25 ], [ 75.55, 30.25 ], [ 75.55, 29.85 ] ] ] } },
{ "type": "Feature", "properties": { "block": "Sangrur" }, "geometry": { "type": "Polygon", "coordinates": [ [ [ 75.85, 29.85 ], [ 76.15, 29.85 ], [ 76.15, 30.25 ], [ 75.85, 30.25 ], [ 75.85, 29.85 ] ] ] } },
{ "type": "Feature", "properties": { "block": "Sunam" }, "geometry": { "type": "Polygon", "coordinates": [ [ [ 76.15, 29.85 ], [ 76.45, 29.85 ], [ 76.45, 30.25 ], [ 76.15, 30.25 ], [ 76.15, 29.85 ] ] ] } }
]
}
